HST                     
1 20580U 90037B   22220.29410025  .00001650  00000+0  86215-4 0  9992
2 20580  28.4688 185.2532 0002442 229.9177 240.8264 15.10736061574066
POLAR                   
1 23802U 96013A   22218.85403722  .00000326  00000+0  00000+0 0  9999
2 23802  78.7788 241.1171 5800663 257.1551  35.5503  1.29847371126544
SWAS                    
1 25560U 98071A   22221.44032808  .00000728  00000+0  74986-4 0  9995
2 25560  69.8970 212.6595 0010555 249.4568 110.5456 14.94899862286203
CXO                     
1 25867U 99040B   22223.58166090  .00000594  00000+0  00000+0 0  9992
2 25867  43.7767 230.5716 8870912 236.9466   0.5938  0.37811426 12009
XMM-NEWTON              
1 25989U 99066A   22222.34316638  .00000174  00000+0  00000+0 0  9997
2 25989  69.9742 303.7444 5960958  86.1678   0.3198  0.50135944 15957
TERRA                   
1 25994U 99068A   22221.49936990  .00000195  00000+0  53142-4 0  9992
2 25994  98.1343 292.1965 0001669  93.4197  36.5163 14.57133629204346
CLUSTER II-FM7 (SAMBA)  
1 26410U 00041A   22214.13514510  .00000281  00000+0  00000+0 0  9998
2 26410 134.3893 348.2228 5745895 200.1360 359.3722  0.44167344 25775
CLUSTER II-FM6 (SALSA)  
1 26411U 00041B   22223.12635805  .00000131  00000+0  00000+0 0  9993
2 26411 136.9155 352.2378 7426766 205.2547 359.2604  0.44218078 25122
CLUSTER II-FM5 (RUMBA)  
1 26463U 00045A   22223.13123416  .00000206  00000+0  00000+0 0  9998
2 26463 140.4288 352.5331 6936430 206.1198 359.2970  0.44218108 26393
CLUSTER II-FM8 (TANGO)  
1 26464U 00045B   22223.13740339 -.00000039  00000+0  00000+0 0  9993
2 26464 134.4346 348.2930 5763418 200.3187 359.2715  0.44219472 61735
ODIN                    
1 26702U 01007A   22220.80016847  .00002274  00000+0  14234-3 0  9998
2 26702  97.5199 234.5927 0012465 106.0474 254.2129 15.10338778174179
TIMED                   
1 26998U 01055B   22221.12947794  .00000580  00000+0  66054-4 0  9994
2 26998  74.0726 174.6964 0001113 306.3719  53.7359 14.88740538120984
RHESSI                  
1 27370U 02004A   22220.87751355  .00024927  00000+0  50375-3 0  9990
2 27370  38.0325  35.0069 0008067 302.1372  57.8620 15.45681296134726
INTEGRAL                
1 27540U 02048A   22221.16787807 -.00000243  00000+0  00000+0 0  9993
2 27540  76.6800  56.2440 8894829 297.7375  83.6413  0.37567812 21339
CORIOLIS                
1 27640U 03001A   22221.61938542  .00000051  00000+0  45171-4 0  9997
2 27640  98.7180 229.7459 0013247 307.8716 129.5556 14.19142949 14496
SORCE                   
1 27651U 03004A   22220.88149117  .00000748  00000+0  89955-4 0  9993
2 27651  39.9952 284.7274 0022113 122.7722 237.5201 14.90022940 60913
MOST                    
1 27843U 03031D   22221.45678441  .00000031  00000+0  34675-4 0  9991
2 27843  98.7081 228.2814 0009995   2.0786 358.0430 14.20694276990777
SCISAT 1                
1 27858U 03036A   22220.71195315  .00000333  00000+0  51563-4 0  9994
2 27858  73.9321  80.9098 0006834 111.3330 248.8574 14.77602401 23155
SWIFT                   
1 28485U 04047A   22221.47370655  .00003200  00000+0  17941-3 0  9997
2 28485  20.5573 298.1135 0010256 250.6329 109.2996 15.06678580971639
CLOUDSAT                
1 29107U 06016A   22220.86021974  .00000158  00000+0  40290-4 0  9999
2 29107  98.3316 181.5035 0004176 128.3759 231.7818 14.62988242866698
CALIPSO                 
1 29108U 06016B   22220.85968419  .00000551  00000+0  11695-3 0  9996
2 29108  98.3286 181.0494 0001315  82.9966 277.1384 14.63010682866682
HINODE (SOLAR-B)        
1 29479U 06041A   22221.10632687  .00000403  00000+0  84281-4 0  9997
2 29479  98.1207 235.6008 0019757  62.3257 297.9948 14.64874513848470
SJ-6C                   
1 29505U 06046A   22221.32602546  .00000726  00000+0  69438-4 0  9992
2 29505  97.7752 242.0074 0003637 317.8828  42.2158 14.96268851860607
SJ-6D                   
1 29506U 06046B   22221.38560917 -.00000060  00000+0 -31463-6 0  9996
2 29506  97.7961 242.1774 0003224  61.7491 298.4077 14.94108570860043
AGILE                   
1 31135U 07013A   22218.44262695  .00006969  00000+0  14450-3 0  9993
2 31135   2.4660 197.7995 0009722 164.6453 195.3897 15.38657225484663
AIM                     
1 31304U 07015A   22220.86478885  .00007585  00000+0  37288-3 0  9991
2 31304  97.8530 142.0436 0004659 174.5452 185.5832 15.18332946839146
FGRST (GLAST)           
1 33053U 08029A   22221.15708164  .00001363  00000+0  59813-4 0  9996
2 33053  25.5817 167.7588 0012302  71.8988 288.2887 15.12308991781902
WISE                    
1 36119U 09071A   22220.84314276  .00006075  00000+0  18601-3 0  9996
2 36119  97.2370 254.2317 0004033 108.4423 251.7259 15.34169565703530
SDO                     
1 36395U 10005A   22220.21691168 -.00000099  00000+0  00000+0 0  9991
2 36395  31.7506 108.3884 0001384 254.6286 289.5412  1.00276175 45932
CRYOSAT 2               
1 36508U 10013A   22221.52842819  .00000051  00000+0  11883-4 0  9995
2 36508  92.0357 296.9842 0006974  75.8276 284.3706 14.51896105653870
X-SAT                   
1 37389U 11015C   22221.47201456 -.00000005  00000+0  15480-4 0  9993
2 37389  98.3327 252.0378 0014741 152.2268 207.9706 14.24432369587755
GCOM-W1 (SHIZUKU)       
1 38337U 12025A   22220.42491622  .00000267  00000+0  69229-4 0  9998
2 38337  98.2040 160.1359 0001629  80.7060  32.0185 14.57120054543889
NUSTAR                  
1 38358U 12031A   22219.80839714  .00001870  00000+0  11799-3 0  9995
2 38358   6.0280 350.0360 0011497 356.8121   3.1934 14.89507402552529
NEOSSAT                 
1 39089U 13009D   22221.53271627  .00000142  00000+0  65059-4 0  9999
2 39089  98.4212  56.5067 0012400 116.9676 243.2778 14.34680335494837
BRITE-AUSTRIA           
1 39091U 13009F   22220.98682607  .00000086  00000+0  44828-4 0  9992
2 39091  98.4044  56.9226 0011523 118.5118 241.7229 14.35289135494971
IRIS                    
1 39197U 13033A   22220.46488067  .00000570  00000+0  83331-4 0  9993
2 39197  97.9709  45.8495 0026448 218.5437 141.3887 14.79300306491662
HISAKI (SPRINT-A)       
1 39253U 13049A   22221.19632078  .00000045  00000+0 -25601-4 0  9991
2 39253  29.7177 176.7238 0137309 124.5619 236.7994 13.55285206441301
CASSIOPE                
1 39265U 13055A   22221.21514266  .00009888  00000+0  26143-3 0  9996
2 39265  80.9623 211.3487 0620033 161.6257 200.8470 14.39408317459901
STSAT-3                 
1 39422U 13066G   22221.45363597  .00000960  00000+0  10289-3 0  9994
2 39422  97.4713 223.7531 0024099 104.1816 256.2099 14.90598676473733
SWARM B                 
1 39451U 13067A   22220.85923404  .00001446  00000+0  64402-4 0  9996
2 39451  87.7481  45.6233 0003091  90.3135 269.8464 15.20629967468897
SWARM A                 
1 39452U 13067B   22221.22349485  .00003728  00000+0  11655-3 0  9996
2 39452  87.3613 205.6826 0002818 105.0141 255.1422 15.32806084490060
SWARM C                 
1 39453U 13067C   22221.22340054  .00003689  00000+0  11532-3 0  9990
2 39453  87.3464 205.0473 0002811 104.6437 255.5126 15.32805752490025
BRITE-CA1 (TORONTO)     
1 40020U 14033L   22221.41240772  .00000472  00000+0  87447-4 0  9999
2 40020  97.7844  17.6933 0088206  94.5645 266.5642 14.67098678435541
OCO 2                   
1 40059U 14035A   22220.88044820  .00000222  00000+0  59303-4 0  9992
2 40059  98.2035 161.3127 0001306  82.9417 277.1930 14.57117505430966
BRITE-PL2 (HEWELIUSZ)   
1 40119U 14049B   22221.09718097  .00000688  00000+0  86342-4 0  9991
2 40119  97.8848 316.1875 0018559  71.8688 288.4546 14.85217367431917
RESURS P2               
1 40360U 14087A   22221.49048411  .00003289  00000+0  92841-4 0  9992
2 40360  97.2062 305.3490 0007432 256.7616 227.2362 15.37063691426405
MMS 1                   
1 40482U 15011A   22217.95502315 -.00001890  00000+0  00000+0 0  9997
2 40482  31.5957 101.8737 8734213  56.2444 122.1821  0.28434821 13430
MMS 2                   
1 40483U 15011B   22217.95537037 -.00001890  00000+0  00000+0 0  9997
2 40483  31.5856 101.8510 8734362  56.2623 122.2059  0.28430095 13413
MMS 3                   
1 40484U 15011C   22217.95695602 -.00001890  00000+0  00000+0 0  9991
2 40484  31.5927 101.8896 8734186  56.2287 122.4020  0.28434828 13418
MMS 4                   
1 40485U 15011D   22217.95741898 -.00001890  00000+0  00000+0 0  9991
2 40485  31.5843 101.8546 8733602  56.2661 122.3948  0.28430110 13414
ASTROSAT                
1 40930U 15052A   22221.15289903  .00001111  00000+0  66138-4 0  9996
2 40930   5.9960 162.4161 0008773 185.4137 174.5895 14.76699452371005
DAMPE                   
1 41173U 15078A   22221.52013317  .00000492  00000+0  22859-4 0  9992
2 41173  97.3798 211.4874 0014124  20.2823 133.2782 15.24513388369663
PISAT                   
1 41784U 16059B   22221.11156358  .00000419  00000+0  88342-4 0  9996
2 41784  97.9124 262.4039 0031780   5.7921 354.3644 14.63962571313399
HXMT (HUIYAN)           
1 42758U 17034A   22221.44340161  .00001260  00000+0  87964-4 0  9999
2 42758  43.0176  56.8508 0010142 258.0869 176.9005 15.10674371284194
FLYING LAPTOP           
1 42831U 17042G   22221.04823041 -.00000020  00000+0  31604-5 0  9994
2 42831  97.4190  72.4367 0013451 185.7372 174.3734 14.91859214275935
PICSAT                  
1 43132U 18004X   22221.20325963  .00014044  00000+0  44827-3 0  9995
2 43132  97.3704 297.3285 0008113 160.4789 199.6765 15.32568412254482
ZHANGZHENG-1 (CSES)     
1 43194U 18015C   22221.48945331  .00003999  00000+0  18278-3 0  9990
2 43194  97.5285 352.1806 0009770 269.2156 155.4712 15.21108511250689
ICON                    
1 44628U 19068A   22220.70698569  .00001756  00000+0  14533-3 0  9993
2 44628  26.9898 327.0854 0018165 194.3378 165.6665 14.93014528154386
SALSAT                  
1 46495U 20068K   22220.50208593  .00001689  00000+0  12413-3 0  9991
2 46495  97.7317 161.8299 0018258 100.3399 259.9886 15.04690878102018
IXPE                    
1 49954U 21121A   22219.74068089  .00001889  00000+0  10925-3 0  9991
2 49954   0.2311   5.8706 0011138 327.8263  26.2470 14.91525779 36090
